<?xml version="1.0" encoding="UTF-8"?>
<ndm xmlns:xsi="http://www.w3.org/2001/XMLSchema-instance" xsi:noNamespaceSchemaLocation="https://sanaregistry.org/r/ndmxml_unqualified/ndmxml-2.0.0-master-2.0.xsd">
<omm id="CCSDS_OMM_VERS" version="2.0">
<header><CREATION_DATE/><ORIGINATOR/></header><body><segment><metadata><OBJECT_NAME>ORBCOMM FM05 [-]</OBJECT_NAME><OBJECT_ID>1997-084F</OBJECT_ID><CENTER_NAME>EARTH</CENTER_NAME><REF_FRAME>TEME</REF_FRAME><TIME_SYSTEM>UTC</TIME_SYSTEM><MEAN_ELEMENT_THEORY>SGP4</MEAN_ELEMENT_THEORY></metadata><data><meanElements><EPOCH>2023-09-19T02:16:49.153440</EPOCH><MEAN_MOTION>14.41383971</MEAN_MOTION><ECCENTRICITY>.0003176</ECCENTRICITY><INCLINATION>45.0152</INCLINATION><RA_OF_ASC_NODE>175.0469</RA_OF_ASC_NODE><ARG_OF_PERICENTER>289.5842</ARG_OF_PERICENTER><MEAN_ANOMALY>70.4665</MEAN_ANOMALY></meanElements><tleParameters><EPHEMERIS_TYPE>0</EPHEMERIS_TYPE><CLASSIFICATION_TYPE>U</CLASSIFICATION_TYPE><NORAD_CAT_ID>25117</NORAD_CAT_ID><ELEMENT_SET_NO>999</ELEMENT_SET_NO><REV_AT_EPOCH>34949</REV_AT_EPOCH><BSTAR>.82411E-3</BSTAR><MEAN_MOTION_DOT>.2552E-4</MEAN_MOTION_DOT><MEAN_MOTION_DDOT>0</MEAN_MOTION_DDOT></tleParameters></data></segment></body></omm>
<omm id="CCSDS_OMM_VERS" version="2.0">
<header><CREATION_DATE/><ORIGINATOR/></header><body><segment><metadata><OBJECT_NAME>ORBCOMM FM06 [+]</OBJECT_NAME><OBJECT_ID>1997-084G</OBJECT_ID><CENTER_NAME>EARTH</CENTER_NAME><REF_FRAME>TEME</REF_FRAME><TIME_SYSTEM>UTC</TIME_SYSTEM><MEAN_ELEMENT_THEORY>SGP4</MEAN_ELEMENT_THEORY></metadata><data><meanElements><EPOCH>2023-09-19T05:17:14.947296</EPOCH><MEAN_MOTION>14.41317832</MEAN_MOTION><ECCENTRICITY>.0002671</ECCENTRICITY><INCLINATION>45.0146</INCLINATION><RA_OF_ASC_NODE>174.5974</RA_OF_ASC_NODE><ARG_OF_PERICENTER>307.2237</ARG_OF_PERICENTER><MEAN_ANOMALY>212.9419</MEAN_ANOMALY></meanElements><tleParameters><EPHEMERIS_TYPE>0</EPHEMERIS_TYPE><CLASSIFICATION_TYPE>U</CLASSIFICATION_TYPE><NORAD_CAT_ID>25118</NORAD_CAT_ID><ELEMENT_SET_NO>999</ELEMENT_SET_NO><REV_AT_EPOCH>34951</REV_AT_EPOCH><BSTAR>.79871E-3</BSTAR><MEAN_MOTION_DOT>.2466E-4</MEAN_MOTION_DOT><MEAN_MOTION_DDOT>0</MEAN_MOTION_DDOT></tleParameters></data></segment></body></omm>
<omm id="CCSDS_OMM_VERS" version="2.0">
<header><CREATION_DATE/><ORIGINATOR/></header><body><segment><metadata><OBJECT_NAME>ORBCOMM FM07 [-]</OBJECT_NAME><OBJECT_ID>1997-084H</OBJECT_ID><CENTER_NAME>EARTH</CENTER_NAME><REF_FRAME>TEME</REF_FRAME><TIME_SYSTEM>UTC</TIME_SYSTEM><MEAN_ELEMENT_THEORY>SGP4</MEAN_ELEMENT_THEORY></metadata><data><meanElements><EPOCH>2023-09-18T19:46:00.686784</EPOCH><MEAN_MOTION>14.41262092</MEAN_MOTION><ECCENTRICITY>.00034</ECCENTRICITY><INCLINATION>45.0140</INCLINATION><RA_OF_ASC_NODE>176.9172</RA_OF_ASC_NODE><ARG_OF_PERICENTER>273.6176</ARG_OF_PERICENTER><MEAN_ANOMALY>86.4284</MEAN_ANOMALY></meanElements><tleParameters><EPHEMERIS_TYPE>0</EPHEMERIS_TYPE><CLASSIFICATION_TYPE>U</CLASSIFICATION_TYPE><NORAD_CAT_ID>25119</NORAD_CAT_ID><ELEMENT_SET_NO>999</ELEMENT_SET_NO><REV_AT_EPOCH>34942</REV_AT_EPOCH><BSTAR>.7986E-3</BSTAR><MEAN_MOTION_DOT>.2462E-4</MEAN_MOTION_DOT><MEAN_MOTION_DDOT>0</MEAN_MOTION_DDOT></tleParameters></data></segment></body></omm>
<omm id="CCSDS_OMM_VERS" version="2.0">
<header><CREATION_DATE/><ORIGINATOR/></header><body><segment><metadata><OBJECT_NAME>ORBCOMM FM03 [-]</OBJECT_NAME><OBJECT_ID>1998-007B</OBJECT_ID><CENTER_NAME>EARTH</CENTER_NAME><REF_FRAME>TEME</REF_FRAME><TIME_SYSTEM>UTC</TIME_SYSTEM><MEAN_ELEMENT_THEORY>SGP4</MEAN_ELEMENT_THEORY></metadata><data><meanElements><EPOCH>2023-09-18T23:08:25.597824</EPOCH><MEAN_MOTION>14.31252336</MEAN_MOTION><ECCENTRICITY>.0049787</ECCENTRICITY><INCLINATION>107.9827</INCLINATION><RA_OF_ASC_NODE>269.8402</RA_OF_ASC_NODE><ARG_OF_PERICENTER>280.1025</ARG_OF_PERICENTER><MEAN_ANOMALY>79.4499</MEAN_ANOMALY></meanElements><tleParameters><EPHEMERIS_TYPE>0</EPHEMERIS_TYPE><CLASSIFICATION_TYPE>U</CLASSIFICATION_TYPE><NORAD_CAT_ID>25158</NORAD_CAT_ID><ELEMENT_SET_NO>999</ELEMENT_SET_NO><REV_AT_EPOCH>33291</REV_AT_EPOCH><BSTAR>.6474E-3</BSTAR><MEAN_MOTION_DOT>.1607E-4</MEAN_MOTION_DOT><MEAN_MOTION_DDOT>0</MEAN_MOTION_DDOT></tleParameters></data></segment></body></omm>
<omm id="CCSDS_OMM_VERS" version="2.0">
<header><CREATION_DATE/><ORIGINATOR/></header><body><segment><metadata><OBJECT_NAME>ORBCOMM FM04 [+]</OBJECT_NAME><OBJECT_ID>1998-007C</OBJECT_ID><CENTER_NAME>EARTH</CENTER_NAME><REF_FRAME>TEME</REF_FRAME><TIME_SYSTEM>UTC</TIME_SYSTEM><MEAN_ELEMENT_THEORY>SGP4</MEAN_ELEMENT_THEORY></metadata><data><meanElements><EPOCH>2023-09-18T22:13:04.443168</EPOCH><MEAN_MOTION>14.31528181</MEAN_MOTION><ECCENTRICITY>.0045276</ECCENTRICITY><INCLINATION>107.9809</INCLINATION><RA_OF_ASC_NODE>272.5415</RA_OF_ASC_NODE><ARG_OF_PERICENTER>278.2298</ARG_OF_PERICENTER><MEAN_ANOMALY>81.3707</MEAN_ANOMALY></meanElements><tleParameters><EPHEMERIS_TYPE>0</EPHEMERIS_TYPE><CLASSIFICATION_TYPE>U</CLASSIFICATION_TYPE><NORAD_CAT_ID>25159</NORAD_CAT_ID><ELEMENT_SET_NO>999</ELEMENT_SET_NO><REV_AT_EPOCH>33293</REV_AT_EPOCH><BSTAR>.57746E-3</BSTAR><MEAN_MOTION_DOT>.1423E-4</MEAN_MOTION_DOT><MEAN_MOTION_DDOT>0</MEAN_MOTION_DDOT></tleParameters></data></segment></body></omm>
<omm id="CCSDS_OMM_VERS" version="2.0">
<header><CREATION_DATE/><ORIGINATOR/></header><body><segment><metadata><OBJECT_NAME>ORBCOMM FM17 [-]</OBJECT_NAME><OBJECT_ID>1998-046A</OBJECT_ID><CENTER_NAME>EARTH</CENTER_NAME><REF_FRAME>TEME</REF_FRAME><TIME_SYSTEM>UTC</TIME_SYSTEM><MEAN_ELEMENT_THEORY>SGP4</MEAN_ELEMENT_THEORY></metadata><data><meanElements><EPOCH>2023-09-19T01:24:10.544832</EPOCH><MEAN_MOTION>14.32314198</MEAN_MOTION><ECCENTRICITY>.0003064</ECCENTRICITY><INCLINATION>44.9969</INCLINATION><RA_OF_ASC_NODE>17.3979</RA_OF_ASC_NODE><ARG_OF_PERICENTER>240.9546</ARG_OF_PERICENTER><MEAN_ANOMALY>119.0993</MEAN_ANOMALY></meanElements><tleParameters><EPHEMERIS_TYPE>0</EPHEMERIS_TYPE><CLASSIFICATION_TYPE>U</CLASSIFICATION_TYPE><NORAD_CAT_ID>25413</NORAD_CAT_ID><ELEMENT_SET_NO>999</ELEMENT_SET_NO><REV_AT_EPOCH>31191</REV_AT_EPOCH><BSTAR>.57117E-3</BSTAR><MEAN_MOTION_DOT>.1416E-4</MEAN_MOTION_DOT><MEAN_MOTION_DDOT>0</MEAN_MOTION_DDOT></tleParameters></data></segment></body></omm>
<omm id="CCSDS_OMM_VERS" version="2.0">
<header><CREATION_DATE/><ORIGINATOR/></header><body><segment><metadata><OBJECT_NAME>ORBCOMM FM18 [-]</OBJECT_NAME><OBJECT_ID>1998-046B</OBJECT_ID><CENTER_NAME>EARTH</CENTER_NAME><REF_FRAME>TEME</REF_FRAME><TIME_SYSTEM>UTC</TIME_SYSTEM><MEAN_ELEMENT_THEORY>SGP4</MEAN_ELEMENT_THEORY></metadata><data><meanElements><EPOCH>2023-09-19T01:31:23.745792</EPOCH><MEAN_MOTION>14.34786295</MEAN_MOTION><ECCENTRICITY>.000552</ECCENTRICITY><INCLINATION>44.9954</INCLINATION><RA_OF_ASC_NODE>309.1915</RA_OF_ASC_NODE><ARG_OF_PERICENTER>296.8928</ARG_OF_PERICENTER><MEAN_ANOMALY>63.1354</MEAN_ANOMALY></meanElements><tleParameters><EPHEMERIS_TYPE>0</EPHEMERIS_TYPE><CLASSIFICATION_TYPE>U</CLASSIFICATION_TYPE><NORAD_CAT_ID>25414</NORAD_CAT_ID><ELEMENT_SET_NO>999</ELEMENT_SET_NO><REV_AT_EPOCH>31280</REV_AT_EPOCH><BSTAR>.58782E-3</BSTAR><MEAN_MOTION_DOT>.1541E-4</MEAN_MOTION_DOT><MEAN_MOTION_DDOT>0</MEAN_MOTION_DDOT></tleParameters></data></segment></body></omm>
<omm id="CCSDS_OMM_VERS" version="2.0">
<header><CREATION_DATE/><ORIGINATOR/></header><body><segment><metadata><OBJECT_NAME>ORBCOMM FM19 [+]</OBJECT_NAME><OBJECT_ID>1998-046C</OBJECT_ID><CENTER_NAME>EARTH</CENTER_NAME><REF_FRAME>TEME</REF_FRAME><TIME_SYSTEM>UTC</TIME_SYSTEM><MEAN_ELEMENT_THEORY>SGP4</MEAN_ELEMENT_THEORY></metadata><data><meanElements><EPOCH>2023-09-19T03:36:45.677088</EPOCH><MEAN_MOTION>14.34667118</MEAN_MOTION><ECCENTRICITY>.0004653</ECCENTRICITY><INCLINATION>44.9960</INCLINATION><RA_OF_ASC_NODE>309.9046</RA_OF_ASC_NODE><ARG_OF_PERICENTER>285.6188</ARG_OF_PERICENTER><MEAN_ANOMALY>106.8492</MEAN_ANOMALY></meanElements><tleParameters><EPHEMERIS_TYPE>0</EPHEMERIS_TYPE><CLASSIFICATION_TYPE>U</CLASSIFICATION_TYPE><NORAD_CAT_ID>25415</NORAD_CAT_ID><ELEMENT_SET_NO>999</ELEMENT_SET_NO><REV_AT_EPOCH>31281</REV_AT_EPOCH><BSTAR>.55122E-3</BSTAR><MEAN_MOTION_DOT>.1433E-4</MEAN_MOTION_DOT><MEAN_MOTION_DDOT>0</MEAN_MOTION_DDOT></tleParameters></data></segment></body></omm>

</ndm>
