ORBCOMM FM05 [-]        
1 25117U 97084F   23262.09501335  .00002552  00000+0  82411-3 0  9997
2 25117  45.0152 175.0469 0003176 289.5842  70.4665 14.41383971349490
ORBCOMM FM06 [+]        
1 25118U 97084G   23262.22031189  .00002466  00000+0  79871-3 0  9998
2 25118  45.0146 174.5974 0002671 307.2237 212.9419 14.41317832349510
ORBCOMM FM07 [-]        
1 25119U 97084H   23261.82361906  .00002462  00000+0  79860-3 0  9991
2 25119  45.0140 176.9172 0003400 273.6176  86.4284 14.41262092349421
ORBCOMM FM03 [-]        
1 25158U 98007B   23261.96418516  .00001607  00000+0  64740-3 0  9996
2 25158 107.9827 269.8402 0049787 280.1025  79.4499 14.31252336332911
ORBCOMM FM04 [+]        
1 25159U 98007C   23261.92574587  .00001423  00000+0  57746-3 0  9998
2 25159 107.9809 272.5415 0045276 278.2298  81.3707 14.31528181332936
ORBCOMM FM17 [-]        
1 25413U 98046A   23262.05845538  .00001416  00000+0  57117-3 0  9990
2 25413  44.9969  17.3979 0003064 240.9546 119.0993 14.32314198311910
ORBCOMM FM18 [-]        
1 25414U 98046B   23262.06346928  .00001541  00000+0  58782-3 0  9999
2 25414  44.9954 309.1915 0005520 296.8928  63.1354 14.34786295312802
ORBCOMM FM19 [+]        
1 25415U 98046C   23262.15052867  .00001433  00000+0  55122-3 0  9991
2 25415  44.9960 309.9046 0004653 285.6188 106.8492 14.34667118312814
